[Satellite]
VERSION=1.1
NAME=SORCE
NICKNAME=SORCE
TLE1=1 27651U 03004A   18020.85849118  .00000004  00000-0  14644-4 0  9990
TLE2=2 27651  39.9944 188.5476 0024288 321.9553  37.9520 14.88802213813232
